OBJECT_NAME,OBJECT_ID,EPOCH,MEAN_MOTION,ECCENTRICITY,INCLINATION,RA_OF_ASC_NODE,ARG_OF_PERICENTER,MEAN_ANOMALY,EPHEMERIS_TYPE,CLASSIFICATION_TYPE,NORAD_CAT_ID,ELEMENT_SET_NO,REV_AT_EPOCH,BSTAR,MEAN_MOTION_DOT,MEAN_MOTION_DDOT
STARLINK-36933,2026-114Q,2026-06-06T06:00:02.000160,15.80861401,.00007776,53.1589,256.9529,120.7503,233.8864,0,U,69196,999,305,.84349914E-4,.15971E-3,0
STARLINK-37419,2026-114R,2026-06-06T06:00:02.000160,15.80852082,.00012848,53.1588,256.9350,85.5491,277.6301,0,U,69197,999,305,.23640122E-4,.3964E-4,0
STARLINK-37321,2026-114S,2026-06-06T06:00:02.000160,15.80848936,.00006073,53.1587,256.9263,124.7492,242.6688,0,U,69198,999,305,.19926224E-3,.38762E-3,0
STARLINK-37406,2026-114T,2026-06-06T06:00:02.000160,15.80841777,.00007648,53.1588,256.9175,91.0086,280.6938,0,U,69199,999,305,.39000651E-3,.76851E-3,0
STARLINK-37761,2026-114U,2026-06-06T06:00:02.000160,15.80890328,.00011994,53.1586,256.9084,96.8571,279.0977,0,U,69200,999,305,-.2529951E-3,-.50382E-3,0
STARLINK-37754,2026-114V,2026-06-06T06:00:02.000160,15.80864865,.00005958,53.1619,256.8975,98.3365,283.0101,0,U,69201,999,305,-.4578159E-5,-.1601E-4,0
STARLINK-37649,2026-114W,2026-06-06T06:00:02.000160,15.80861032,.00006913,53.1620,256.8912,113.6239,270.8736,0,U,69202,999,305,.67002584E-4,.12538E-3,0
STARLINK-37604,2026-114X,2026-06-06T06:00:02.000160,15.80867280,.00006668,53.1587,256.8824,123.7847,264.9868,0,U,69203,999,305,-.91902411E-4,-.18791E-3,0
STARLINK-37669,2026-114Y,2026-06-06T06:00:02.000160,15.80865262,.00011853,53.1587,256.8734,115.8677,277.1737,0,U,69204,999,305,.23007562E-4,.3842E-4,0
STARLINK-37691,2026-114Z,2026-06-06T06:00:02.000160,15.80827746,.00008816,53.1589,256.8463,108.9252,296.9425,0,U,69205,999,305,.35419235E-3,.69626E-3,0
STARLINK-37671,2026-114AA,2026-06-06T06:00:02.000160,15.80823286,.0001121,53.1585,256.8556,97.2084,304.3833,0,U,69206,999,305,.65260434E-3,.129757E-2,0
STARLINK-37647,2026-114AB,2026-06-06T06:00:02.000160,15.80870501,.00009024,53.1587,256.8643,108.0741,289.2381,0,U,69207,999,305,-.15339889E-3,-.30862E-3,0
STARLINK-37562,2026-114AC,2026-06-06T06:00:02.000160,15.80853729,.00010123,53.1586,256.8375,92.1408,317.9928,0,U,69208,999,305,.10095201E-3,.19253E-3,0
STARLINK-37682,2026-114AD,2026-06-06T06:00:02.000160,15.80815973,.00006547,53.1589,256.8282,118.5400,295.8741,0,U,69209,999,305,.48387603E-3,.95612E-3,0
STARLINK-37402,2026-114AE,2026-06-06T06:00:02.000160,15.80808655,.00010154,53.1587,256.8195,103.3841,315.3047,0,U,69210,999,305,.58492515E-3,.115962E-2,0
STARLINK-37613,2026-115A,2026-06-06T06:00:02.000160,15.80655160,.00009121,97.2841,174.1021,73.4512,100.3378,0,U,69211,999,293,-.1506964E-1,-.2464787E-1,0
STARLINK-37713,2026-115B,2026-06-06T06:00:02.000160,15.80840684,.0001342,97.2837,174.1037,60.5697,114.8741,0,U,69212,999,293,-.56109939E-3,-.10644E-2,0
STARLINK-37716,2026-115C,2026-06-06T06:00:02.000160,15.80840314,.00011691,97.2841,174.1014,72.1068,99.0933,0,U,69213,999,293,.1617136E-4,.296E-4,0
STARLINK-37620,2026-115D,2026-06-06T06:00:02.000160,15.78504606,.0001531,97.2841,174.1034,90.7631,87.2030,0,U,69214,999,293,-.16080824E-1,-.2395863E-1,0
STARLINK-37700,2026-115E,2026-06-06T06:00:02.000160,15.68318612,.00015863,97.2849,174.0836,80.2471,51.0358,0,U,69215,999,293,-.26127361E-1,-.2547913E-1,0
STARLINK-37766,2026-115F,2026-06-06T06:00:02.000160,15.80848681,.00011592,97.2834,174.1086,76.0993,112.1615,0,U,69216,999,293,-.69535083E-3,-.131542E-2,0
STARLINK-37763,2026-115G,2026-06-06T06:00:02.000160,15.80798946,.00012277,97.2835,174.1104,106.0126,85.8806,0,U,69217,999,293,-.25957933E-3,-.49543E-3,0
STARLINK-37724,2026-115H,2026-06-06T06:00:02.000160,15.80791937,.00013512,97.2838,174.1122,115.8918,80.7560,0,U,69218,999,293,-.13580053E-3,-.26048E-3,0
STARLINK-37758,2026-115J,2026-06-06T06:00:02.000160,15.80833827,.00009809,97.2834,174.1204,87.9580,126.9236,0,U,69219,999,293,-.5622051E-3,-.106609E-2,0
STARLINK-37201,2026-115K,2026-06-06T06:00:02.000160,15.80854239,.00012166,97.2839,174.1172,81.0086,126.8399,0,U,69220,999,293,-.72602286E-3,-.137285E-2,0
STARLINK-37728,2026-115L,2026-06-06T06:00:02.000160,15.80824438,.00014007,97.2837,174.1241,75.3990,146.2142,0,U,69221,999,293,-.40389225E-3,-.7686E-3,0
STARLINK-37760,2026-115M,2026-06-06T06:00:02.000160,15.80792830,.00011847,97.2837,174.1168,111.4589,94.5811,0,U,69222,999,293,-.14260389E-3,-.27342E-3,0
STARLINK-37759,2026-115N,2026-06-06T06:00:02.000160,15.80796590,.00013399,97.2833,174.1256,118.8414,106.8731,0,U,69223,999,293,-.25852084E-3,-.49338E-3,0
STARLINK-37725,2026-115P,2026-06-06T06:00:02.000160,15.80838768,.00010528,97.2838,174.1235,84.4502,138.0028,0,U,69224,999,293,-.51617765E-3,-.98012E-3,0
STARLINK-37770,2026-115Q,2026-06-06T06:00:02.000160,15.80956528,.00017766,97.2839,174.1225,92.2184,126.8429,0,U,69225,999,293,-.13270364E-2,-.248851E-2,0
